CCSDS_OMM_VERS = 2.0
CREATION_DATE  = 
ORIGINATOR     = 

OBJECT_NAME    = COSMOS 2550
OBJECT_ID      = 2021-056A
CENTER_NAME    = EARTH
REF_FRAME      = TEME
TIME_SYSTEM    = UTC
MEAN_ELEMENT_THEORY = SGP/SGP4

EPOCH          = 2025-11-03T11:18:22.615776
MEAN_MOTION    = 15.33837542
ECCENTRICITY   = .00083282
INCLINATION    = 67.1434
RA_OF_ASC_NODE = 62.7678
ARG_OF_PERICENTER = 269.9513
MEAN_ANOMALY   = 90.0687

EPHEMERIS_TYPE = 0
CLASSIFICATION_TYPE = U
NORAD_CAT_ID   = 48865
ELEMENT_SET_NO = 999
REV_AT_EPOCH   = 24410
BSTAR          = .18707369E-3
MEAN_MOTION_DOT = .5969E-4
MEAN_MOTION_DDOT = 0

CCSDS_OMM_VERS = 2.0
CREATION_DATE  = 
ORIGINATOR     = 

OBJECT_NAME    = CZ-2C R/B
OBJECT_ID      = 2022-058K
CENTER_NAME    = EARTH
REF_FRAME      = TEME
TIME_SYSTEM    = UTC
MEAN_ELEMENT_THEORY = SGP/SGP4

EPOCH          = 2025-11-03T12:54:55.466208
MEAN_MOTION    = 15.45752030
ECCENTRICITY   = .00500811
INCLINATION    = 50.1917
RA_OF_ASC_NODE = 243.0601
ARG_OF_PERICENTER = 35.1335
MEAN_ANOMALY   = 325.2918

EPHEMERIS_TYPE = 0
CLASSIFICATION_TYPE = U
NORAD_CAT_ID   = 52794
ELEMENT_SET_NO = 999
REV_AT_EPOCH   = 19056
BSTAR          = .56952133E-3
MEAN_MOTION_DOT = .29094E-3
MEAN_MOTION_DDOT = 0

CCSDS_OMM_VERS = 2.0
CREATION_DATE  = 
ORIGINATOR     = 

OBJECT_NAME    = GSLV R/B
OBJECT_ID      = 2022-138AN
CENTER_NAME    = EARTH
REF_FRAME      = TEME
TIME_SYSTEM    = UTC
MEAN_ELEMENT_THEORY = SGP/SGP4

EPOCH          = 2025-11-03T10:57:50.840352
MEAN_MOTION    = 14.95800081
ECCENTRICITY   = .00190678
INCLINATION    = 87.3857
RA_OF_ASC_NODE = 208.6186
ARG_OF_PERICENTER = 248.4736
MEAN_ANOMALY   = 111.4463

EPHEMERIS_TYPE = 0
CLASSIFICATION_TYPE = U
NORAD_CAT_ID   = 54149
ELEMENT_SET_NO = 999
REV_AT_EPOCH   = 16505
BSTAR          = .2862064E-3
MEAN_MOTION_DOT = .3231E-4
MEAN_MOTION_DDOT = 0

CCSDS_OMM_VERS = 2.0
CREATION_DATE  = 
ORIGINATOR     = 

OBJECT_NAME    = XRISM
OBJECT_ID      = 2023-137A
CENTER_NAME    = EARTH
REF_FRAME      = TEME
TIME_SYSTEM    = UTC
MEAN_ELEMENT_THEORY = SGP/SGP4

EPOCH          = 2025-11-03T21:37:35.625792
MEAN_MOTION    = 15.09726748
ECCENTRICITY   = .00082377
INCLINATION    = 31.0033
RA_OF_ASC_NODE = 16.1919
ARG_OF_PERICENTER = 212.8350
MEAN_ANOMALY   = 147.1776

EPHEMERIS_TYPE = 0
CLASSIFICATION_TYPE = U
NORAD_CAT_ID   = 57800
ELEMENT_SET_NO = 999
REV_AT_EPOCH   = 11875
BSTAR          = .43979777E-3
MEAN_MOTION_DOT = .7369E-4
MEAN_MOTION_DDOT = 0

CCSDS_OMM_VERS = 2.0
CREATION_DATE  = 
ORIGINATOR     = 

OBJECT_NAME    = ACS3
OBJECT_ID      = 2024-077B
CENTER_NAME    = EARTH
REF_FRAME      = TEME
TIME_SYSTEM    = UTC
MEAN_ELEMENT_THEORY = SGP/SGP4

EPOCH          = 2025-11-03T22:30:15.811200
MEAN_MOTION    = 13.83072193
ECCENTRICITY   = .00395592
INCLINATION    = 97.3297
RA_OF_ASC_NODE = 272.1378
ARG_OF_PERICENTER = 30.9105
MEAN_ANOMALY   = 329.4372

EPHEMERIS_TYPE = 0
CLASSIFICATION_TYPE = U
NORAD_CAT_ID   = 59588
ELEMENT_SET_NO = 999
REV_AT_EPOCH   = 7677
BSTAR          = .93817974E-2
MEAN_MOTION_DOT = .10308E-3
MEAN_MOTION_DDOT = 0

