COSMOS 2550             
1 48865U 21056A   25307.47109509  .00005969  00000+0  18707-3 0  9991
2 48865  67.1434  62.7678 0008328 269.9513  90.0687 15.33837542244102
CZ-2C R/B               
1 52794U 22058K   25307.53814197  .00029094  00000+0  56952-3 0  9992
2 52794  50.1917 243.0601 0050081  35.1335 325.2918 15.45752030190565
GSLV R/B                
1 54149U 22138AN  25307.45683843  .00003231  00000+0  28621-3 0  9997
2 54149  87.3857 208.6186 0019067 248.4736 111.4463 14.95800081165054
XRISM                   
1 57800U 23137A   25307.90110678  .00007369  00000+0  43980-3 0  9996
2 57800  31.0033  16.1919 0008237 212.8350 147.1776 15.09726748118754
ACS3                    
1 59588U 24077B   25307.93768300  .00010308  00000+0  93818-2 0  9990
2 59588  97.3297 272.1378 0039559  30.9105 329.4372 13.83072193 76777
